{
  "type": "FeatureCollection",
  "features": [
    {
      "type": "Feature",
      "properties": {
        "norad_id": 33924,
        "name": "COSMOS 2251 DEB",
        "group": "cosmos-2251-debris",
        "lat": -4.28197771178008,
        "lon": -103.2129724468794,
        "alt_km": 930.6733192328893,
        "timestamp": "2025-12-20T07:33:51.206068+00:00",
        "meta_object_name": "COSMOS 2251 DEB",
        "meta_object_id": "1993-036ED",
        "meta_epoch": "2025-12-19T20:55:00.671520",
        "meta_mean_motion": 13.50234105,
        "meta_eccentricity": 0.04038821,
        "meta_inclination": 73.9135,
        "meta_ra_of_asc_node": 258.7378,
        "meta_arg_of_pericenter": 292.9364,
        "meta_mean_anomaly": 62.96,
        "meta_ephemeris_type": 0,
        "meta_classification_type": "U",
        "meta_norad_cat_id": 33924,
        "meta_element_set_no": 999,
        "meta_rev_at_epoch": 82835,
        "meta_bstar": 0.0003921024,
        "meta_mean_motion_dot": 3.91e-06,
        "meta_mean_motion_ddot": 0,
        "tle_line1": "1 33924U 93036ED  25353.87153555  .00000391  00000+0  39210-3 0  9999",
        "tle_line2": "2 33924  73.9135 258.7378 0403882 292.9364  62.9600 13.50234105828354"
      },
      "geometry": {
        "type": "Point",
        "coordinates": [
          -103.2129724468794,
          -4.28197771178008
        ]
      }
    },
    {
      "type": "Feature",
      "properties": {
        "norad_id": 33928,
        "name": "COSMOS 2251 DEB",
        "group": "cosmos-2251-debris",
        "lat": 31.940089355121163,
        "lon": 48.65853669207144,
        "alt_km": 711.4921835633731,
        "timestamp": "2025-12-20T07:33:51.206078+00:00",
        "meta_object_name": "COSMOS 2251 DEB",
        "meta_object_id": "1993-036EH",
        "meta_epoch": "2025-12-19T13:09:54.144576",
        "meta_mean_motion": 14.47416103,
        "meta_eccentricity": 0.0061806,
        "meta_inclination": 73.9256,
        "meta_ra_of_asc_node": 39.7458,
        "meta_arg_of_pericenter": 332.4415,
        "meta_mean_anomaly": 27.347,
        "meta_ephemeris_type": 0,
        "meta_classification_type": "U",
        "meta_norad_cat_id": 33928,
        "meta_element_set_no": 999,
        "meta_rev_at_epoch": 88743,
        "meta_bstar": 0.00017694,
        "meta_mean_motion_dot": 6.35e-06,
        "meta_mean_motion_ddot": 0,
        "tle_line1": "1 33928U 93036EH  25353.54854334  .00000635  00000+0  17694-3 0  9993",
        "tle_line2": "2 33928  73.9256  39.7458 0061806 332.4415  27.3470 14.47416103887432"
      },
      "geometry": {
        "type": "Point",
        "coordinates": [
          48.65853669207144,
          31.940089355121163
        ]
      }
    },
    {
      "type": "Feature",
      "properties": {
        "norad_id": 33932,
        "name": "COSMOS 2251 DEB",
        "group": "cosmos-2251-debris",
        "lat": -61.22778736827674,
        "lon": -89.47731989737117,
        "alt_km": 765.6965514777394,
        "timestamp": "2025-12-20T07:33:51.206088+00:00",
        "meta_object_name": "COSMOS 2251 DEB",
        "meta_object_id": "1993-036EM",
        "meta_epoch": "2025-12-19T21:51:19.578528",
        "meta_mean_motion": 14.38777344,
        "meta_eccentricity": 0.0035696,
        "meta_inclination": 74.0341,
        "meta_ra_of_asc_node": 302.6915,
        "meta_arg_of_pericenter": 17.1173,
        "meta_mean_anomaly": 343.1175,
        "meta_ephemeris_type": 0,
        "meta_classification_type": "U",
        "meta_norad_cat_id": 33932,
        "meta_element_set_no": 999,
        "meta_rev_at_epoch": 88101,
        "meta_bstar": 0.00033280864,
        "meta_mean_motion_dot": 1.004e-05,
        "meta_mean_motion_ddot": 0,
        "tle_line1": "1 33932U 93036EM  25353.91064327  .00001004  00000+0  33281-3 0  9995",
        "tle_line2": "2 33932  74.0341 302.6915 0035696  17.1173 343.1175 14.38777344881016"
      },
      "geometry": {
        "type": "Point",
        "coordinates": [
          -89.47731989737117,
          -61.22778736827674
        ]
      }
    },
    {
      "type": "Feature",
      "properties": {
        "norad_id": 33933,
        "name": "COSMOS 2251 DEB",
        "group": "cosmos-2251-debris",
        "lat": -1.3679570812207626,
        "lon": 45.939962027470614,
        "alt_km": 752.6317169740078,
        "timestamp": "2025-12-20T07:33:51.206099+00:00",
        "meta_object_name": "COSMOS 2251 DEB",
        "meta_object_id": "1993-036EN",
        "meta_epoch": "2025-12-19T21:31:17.122080",
        "meta_mean_motion": 14.33499079,
        "meta_eccentricity": 0.0070888,
        "meta_inclination": 74.0891,
        "meta_ra_of_asc_node": 47.0926,
        "meta_arg_of_pericenter": 53.354,
        "meta_mean_anomaly": 307.4101,
        "meta_ephemeris_type": 0,
        "meta_classification_type": "U",
        "meta_norad_cat_id": 33933,
        "meta_element_set_no": 999,
        "meta_rev_at_epoch": 87887,
        "meta_bstar": 0.00018927887,
        "meta_mean_motion_dot": 5.13e-06,
        "meta_mean_motion_ddot": 0,
        "tle_line1": "1 33933U 93036EN  25353.89672595  .00000513  00000+0  18928-3 0  9990",
        "tle_line2": "2 33933  74.0891  47.0926 0070888  53.3540 307.4101 14.33499079878874"
      },
      "geometry": {
        "type": "Point",
        "coordinates": [
          45.939962027470614,
          -1.3679570812207626
        ]
      }
    },
    {
      "type": "Feature",
      "properties": {
        "norad_id": 33934,
        "name": "COSMOS 2251 DEB",
        "group": "cosmos-2251-debris",
        "lat": 73.4035965686698,
        "lon": -167.66146784345116,
        "alt_km": 693.0920868684734,
        "timestamp": "2025-12-20T07:33:51.206109+00:00",
        "meta_object_name": "COSMOS 2251 DEB",
        "meta_object_id": "1993-036EP",
        "meta_epoch": "2025-12-19T06:26:58.416288",
        "meta_mean_motion": 14.59159881,
        "meta_eccentricity": 0.0015422,
        "meta_inclination": 74.0383,
        "meta_ra_of_asc_node": 88.132,
        "meta_arg_of_pericenter": 211.8788,
        "meta_mean_anomaly": 148.1445,
        "meta_ephemeris_type": 0,
        "meta_classification_type": "U",
        "meta_norad_cat_id": 33934,
        "meta_element_set_no": 999,
        "meta_rev_at_epoch": 88834,
        "meta_bstar": 0.00060457,
        "meta_mean_motion_dot": 2.825e-05,
        "meta_mean_motion_ddot": 0,
        "tle_line1": "1 33934U 93036EP  25353.26873167  .00002825  00000+0  60457-3 0  9992",
        "tle_line2": "2 33934  74.0383  88.1320 0015422 211.8788 148.1445 14.59159881888349"
      },
      "geometry": {
        "type": "Point",
        "coordinates": [
          -167.66146784345116,
          73.4035965686698
        ]
      }
    },
    {
      "type": "Feature",
      "properties": {
        "norad_id": 33936,
        "name": "COSMOS 2251 DEB",
        "group": "cosmos-2251-debris",
        "lat": 50.92429022408234,
        "lon": 43.67474792405699,
        "alt_km": 697.4599197822909,
        "timestamp": "2025-12-20T07:33:51.206119+00:00",
        "meta_object_name": "COSMOS 2251 DEB",
        "meta_object_id": "1993-036ER",
        "meta_epoch": "2025-12-19T09:56:35.697120",
        "meta_mean_motion": 14.60309706,
        "meta_eccentricity": 0.0027087,
        "meta_inclination": 74.018,
        "meta_ra_of_asc_node": 24.7273,
        "meta_arg_of_pericenter": 178.6674,
        "meta_mean_anomaly": 181.4569,
        "meta_ephemeris_type": 0,
        "meta_classification_type": "U",
        "meta_norad_cat_id": 33936,
        "meta_element_set_no": 999,
        "meta_rev_at_epoch": 88987,
        "meta_bstar": 0.00043447,
        "meta_mean_motion_dot": 2.08e-05,
        "meta_mean_motion_ddot": 0,
        "tle_line1": "1 33936U 93036ER  25353.41430205  .00002080  00000+0  43447-3 0  9996",
        "tle_line2": "2 33936  74.0180  24.7273 0027087 178.6674 181.4569 14.60309706889874"
      },
      "geometry": {
        "type": "Point",
        "coordinates": [
          43.67474792405699,
          50.92429022408234
        ]
      }
    },
    {
      "type": "Feature",
      "properties": {
        "norad_id": 33938,
        "name": "COSMOS 2251 DEB",
        "group": "cosmos-2251-debris",
        "lat": -71.3329465728717,
        "lon": 70.9049113283097,
        "alt_km": 731.4083477039576,
        "timestamp": "2025-12-20T07:33:51.206128+00:00",
        "meta_object_name": "COSMOS 2251 DEB",
        "meta_object_id": "1993-036ET",
        "meta_epoch": "2025-12-19T22:36:50.099328",
        "meta_mean_motion": 14.46813213,
        "meta_eccentricity": 0.00168318,
        "meta_inclination": 74.0438,
        "meta_ra_of_asc_node": 193.7288,
        "meta_arg_of_pericenter": 275.2594,
        "meta_mean_anomaly": 203.3416,
        "meta_ephemeris_type": 0,
        "meta_classification_type": "U",
        "meta_norad_cat_id": 33938,
        "meta_element_set_no": 999,
        "meta_rev_at_epoch": 88504,
        "meta_bstar": 0.00029293259,
        "meta_mean_motion_dot": 1.036e-05,
        "meta_mean_motion_ddot": 0,
        "tle_line1": "1 33938U 93036ET  25353.94224652  .00001036  00000+0  29293-3 0  9996",
        "tle_line2": "2 33938  74.0438 193.7288 0016831 275.2594 203.3416 14.46813213885042"
      },
      "geometry": {
        "type": "Point",
        "coordinates": [
          70.9049113283097,
          -71.3329465728717
        ]
      }
    }
  ]
}